GLOBALSTAR M023         
1 25621U 99004A   26017.26167666 -.00000042  00000+0  34230-3 0  9995
2 25621  52.0102 121.5734 0009421 237.1121 141.0041 12.62514170242776
GLOBALSTAR M040         
1 25622U 99004B   26017.32334924 -.00000137  00000+0 -18887-3 0  9992
2 25622  51.9921 125.8547 0001757 128.9216 265.5130 12.62026488242297
GLOBALSTAR M036         
1 25623U 99004C   26017.32678444 -.00000053  00000+0  42978-3 0  9995
2 25623  51.9984  35.8838 0010815 101.5505 272.0758 11.86616770204407
GLOBALSTAR M038         
1 25624U 99004D   26017.21275841 -.00000093  00000+0  14397-4 0  9997
2 25624  51.9952 175.1950 0002798 123.8139  47.7068 12.32539287228762
GLOBALSTAR M022         
1 25649U 99012A   26017.28278766 -.00000049  00000+0  45087-3 0  9999
2 25649  52.0047  68.8866 0002642 223.7667 212.4339 12.02508692202132
GLOBALSTAR M041         
1 25650U 99012B   26017.21332078 -.00000056  00000+0  37472-3 0  9998
2 25650  52.0044 317.0540 0001743  34.7751 325.3199 11.96682926203903
GLOBALSTAR M046         
1 25651U 99012C   26017.22308206 -.00000086  00000+0  26502-4 0  9992
2 25651  52.0079  11.3705 0001839 325.8229  47.2515 12.09418816209569
GLOBALSTAR M037         
1 25652U 99012D   26017.20008905 -.00000070  00000+0  18977-3 0  9993
2 25652  51.9988 252.3015 0001536 331.7654 181.0576 12.62459243238306
